LEMUR-2-AMANDA-SVANTE   
1 48269U 21034B   26068.77637527  .00030872  00000+0  11134-2 0  9996
2 48269  97.5829 144.8625 0002703 205.4721 154.6385 15.28469003265849
STARLINK-33963          
1 63968U 25099S   26067.67090274  .00035994  00000+0  13112-2 0  9992
2 63968  42.9946 181.6926 0000985 305.2913  54.7846 15.27577129 47186
